BEESAT-4                
1 41619U 16040W   22216.58973482  .00006754  00000+0  21931-3 0  9991
2 41619  97.2131 265.9608 0007467 309.9314  50.1271 15.32230783328097
CAS-2T & KS-1Q          
1 41847U 16066G   22216.61216141  .00000393  00000+0  67828-4 0  9997
2 41847  98.5481 281.2229 0364529  65.9332 297.9544 14.38675100301272
NAYIF-1 (EO-88)         
1 42017U 17008BX  22216.66444007  .00008486  00000+0  24479-3 0  9998
2 42017  97.2655 282.1148 0006334  81.7503 278.4459 15.35925661304476
ZHUHAI-1 02 (CAS-4B)    
1 42759U 17034B   22216.80319015  .00001357  00000+0  90071-4 0  9998
2 42759  43.0177  66.1385 0010158 240.3878 226.3930 15.12179152283672
ZHUHAI-1 01 (CAS-4A)    
1 42761U 17034D   22216.90693359  .00001679  00000+0  10812-3 0  9999
2 42761  43.0177  64.3159 0010289 243.3010 249.1762 15.12268035283697
MAX VALIER SAT          
1 42778U 17036P   22216.87064069  .00004253  00000+0  15974-3 0  9990
2 42778  97.2019 256.3199 0011907 146.3430 213.8568 15.27642296284294
RADFXSAT (FOX-1B)       
1 43017U 17073E   22216.93260460  .00002762  00000+0  20923-3 0  9991
2 43017  97.6689 109.1356 0248580  29.4042 332.0896 14.81701418254293
FOX-1D (AO-92)          
1 43137U 18004AC  22216.82662757  .00005177  00000+0  17999-3 0  9994
2 43137  97.3662 291.5682 0007687 178.1791 181.9479 15.30144167253740
DIWATA-2B               
1 43678U 18084H   22216.86401369  .00000367  00000+0  41766-4 0  9992
2 43678  97.9770 350.7147 0011031 121.6830 238.5484 14.92236904205071
ES'HAIL 2               
1 43700U 18090A   22216.89493902  .00000151  00000+0  00000+0 0  9994
2 43700   0.0155  88.9203 0001683  81.3290 131.1409  1.00271416 13519
FOX-1CLIFF (AO-95)      
1 43770U 18099N   22216.12971232  .00001560  00000+0  14154-3 0  9997
2 43770  97.6182 281.2406 0015768 114.1053 246.1820 14.96624992200143
ITASAT 1                
1 43786U 18099AE  22216.11874868  .00000953  00000+0  88133-4 0  9994
2 43786  97.6203 282.1743 0016226 107.9971 252.3021 14.96742515200185
JY1SAT (JO-97)          
1 43803U 18099AX  22216.65475198  .00001333  00000+0  11972-3 0  9995
2 43803  97.6165 282.4657 0016157 105.6548 254.6458 14.97281041200280
UWE-4                   
1 43880U 18111E   22216.68639799  .00001757  00000+0  15208-3 0  9993
2 43880  97.6639 122.1533 0012932 150.2554 209.9407 14.98365734196929
NEXUS (FO-99)           
1 43937U 19003F   22216.92086298  .00006728  00000+0  22114-3 0  9991
2 43937  97.1278 248.4095 0019132 346.0109  14.0600 15.31685070197399
PSAT2 (NO-104)          
1 44354U 19036R   22216.28413113  .00033225 -58500-5  26481-3 0  9998
2 44354  28.5224 205.5146 0214666 151.9738 209.2607 15.44296442172071
JAISAT-1                
1 44419U 19038F   22216.89789164  .00003937  00000+0  19665-3 0  9999
2 44419  97.6387 187.4396 0017852 329.2446  30.7740 15.17953753170404
DUCHIFAT-3              
1 44854U 19089C   22216.92781026  .00001298  00000+0  10500-3 0  9998
2 44854  36.9658 172.9102 0009232 261.2337  98.7430 15.01328921145223
CAS-6 (TO-108)          
1 44881U 19093C   22216.86169320  .00000206  00000+0  32730-4 0  9991
2 44881  97.8923 295.3758 0015802  33.2842 326.9354 14.81774547141941
RS-44 & BREEZE-KM R/B   
1 44909U 19096E   22216.89835038  .00000021  00000+0  43021-4 0  9994
2 44909  82.5209 198.0902 0216786 206.1995 152.8010 12.79714171121703
ORBITAL FACTORY 2 (OF-2)
1 45113U 19071C   22216.31650159  .00015947  00000+0  31280-3 0  9997
2 45113  51.6369 183.4899 0009732 357.8801   2.2144 15.47466530140785
HUSKYSAT-1 (HO-107)     
1 45119U 19071J   22216.93638681  .00013706  00000+0  28108-3 0  9993
2 45119  51.6366 180.8508 0009446 356.2149   3.8765 15.46307066140868
BY70-2                  
1 45857U 20042B   22216.76422780  .00002718  00000+0  36340-3 0  9992
2 45857  97.9552 293.1583 0009068 326.9646  33.0993 14.80302762112608
SALSAT                  
1 46495U 20068K   22216.77804285  .00001272  00000+0  94591-4 0  9991
2 46495  97.7312 158.1027 0017954 112.0594 248.2541 15.04677078101453
BY70-3                  
1 46839U 20079N   22216.95803506  .00012116  00000+0  26968-3 0  9991
2 46839  97.1951 288.4698 0006540 144.3200 333.7773 15.43753005 97729
RADFXSAT-2 (AO-109)     
1 47311U 21002C   22216.31172333  .00004924  00000+0  19984-3 0  9999
2 47311  60.6843 182.0007 0025419  13.9289 346.2495 15.25894394 85765
UVSQ-SAT                
1 47438U 21006AB  22216.92805029  .00002912  00000+0  15409-3 0  9998
2 47438  97.4339 274.9491 0013487 105.9117 254.3603 15.16153047 84622
DIY-1 (ARDUIQUBE)       
1 47963U 21022AH  22216.52396501  .00007495  00000+0  40709-3 0  9997
2 47963  97.5267 117.3561 0015432 334.4877  25.5591 15.14704955 74225
XW-3 (CAS-9)            
1 50466U 21131B   22216.93124208 -.00000028  00000+0  52985-5 0  9995
2 50466  98.5793 294.1599 0004598  21.5583 338.5797 14.38512681 31884
TEVEL-3                 
1 50988U 22002E   22216.92423306  .00003025  00000+0  16581-3 0  9991
2 50988  97.4789 283.1065 0007947 252.9937 211.0330 15.14932116 30753
TEVEL-8                 
1 50989U 22002F   22216.92787796  .00002876  00000+0  15804-3 0  9998
2 50989  97.4801 283.1333 0007967 252.7374 194.2367 15.14878283 30758
TEVEL-5                 
1 50998U 22002Q   22216.92650203  .00002983  00000+0  16125-3 0  9996
2 50998  97.4779 283.2283 0009561 247.6028 199.1688 15.15417312 30762
TEVEL-6                 
1 50999U 22002R   22216.92610007  .00002989  00000+0  16159-3 0  9998
2 50999  97.4773 283.2254 0009529 248.1968 199.0100 15.15421546 30760
TEVEL-1                 
1 51013U 22002AF  22216.92417764  .00002955  00000+0  16216-3 0  9998
2 51013  97.4784 283.0871 0007875 252.0310 195.4120 15.14906160 30750
TEVEL-7                 
1 51062U 22002CG  22216.92952049  .00002884  00000+0  15850-3 0  9996
2 51062  97.4798 283.1222 0007884 250.5836 196.6022 15.14869037 30751
TEVEL-4                 
1 51063U 22002CH  22216.87061172  .00002844  00000+0  15637-3 0  9998
2 51063  97.4794 283.0608 0007961 251.6157 230.5399 15.14859846 30740
TEVEL-2                 
1 51069U 22002CP  22216.92545676  .00002973  00000+0  16305-3 0  9992
2 51069  97.4787 283.0957 0007893 252.6782 211.2502 15.14924077 30756
